NORAD_CAT_ID,OBJECT_NAME,OBJECT_TYPE,EPOCH,MEAN_MOTION,ECCENTRICITY,INCLINATION,RA_OF_ASC_NODE,ARG_OF_PERICENTER,MEAN_ANOMALY,BSTAR,MEAN_MOTION_DOT,MEAN_MOTION_DDOT,TLE_LINE0,TLE_LINE1,TLE_LINE2,SEMIMAJOR_AXIS,PERIOD,APOGEE,PERIGEE,DECAYED
55777.0,STARLINK-5814,PAYLOAD,2023-04-18 04:21:14,15.69930394,0.0002805,69.9992,27.4819,264.1554,95.9322,1.1205e-05,1.135e-05,0.0,0 STARLINK-5814,1 55777U 23028AN  23108.18141885  .00001135  00000-0  11205-4 0  9999,2 55777  69.9992  27.4819 0002805 264.1554  95.9322 15.69930394  7804,6737.233,91.724,360.988,357.208,0.0
55777.0,STARLINK-5814,PAYLOAD,2023-04-19 04:49:15,15.699397,0.0002918,70.001,24.6198,247.7031,112.3856,2.4975e-05,2.793e-05,0.0,0 STARLINK-5814,1 55777U 23028AN  23109.20087853  .00002793  00000-0  24975-4 0  9996,2 55777  70.0010  24.6198 0002918 247.7031 112.3856 15.69939700  7962,6737.207,91.723,361.037,357.106,0.0
55777.0,STARLINK-5814,PAYLOAD,2023-04-20 03:45:34,15.69922068,0.0002708,70.0004,21.931,252.5214,107.5686,8.7704e-06,8.42e-06,0.0,0 STARLINK-5814,1 55777U 23028AN  23110.15664419  .00000842  00000-0  87704-5 0  9994,2 55777  70.0004  21.9310 0002708 252.5214 107.5686 15.69922068  8119,6737.257,91.724,360.946,357.298,0.0
55777.0,STARLINK-5814,PAYLOAD,2023-04-21 04:13:34,15.69949154,0.0003536,69.9996,19.0649,270.1092,89.9699,1.6472e-05,1.77e-05,0.0,0 STARLINK-5814,1 55777U 23028AN  23111.17609227  .00001770  00000-0  16472-4 0  9997,2 55777  69.9996  19.0649 0003536 270.1092  89.9699 15.69949154  8278,6737.179,91.723,361.427,356.662,0.0
55777.0,STARLINK-5814,PAYLOAD,2023-04-21 07:17:04,15.69942744,0.0003623,69.9987,18.7051,265.0854,94.9929,8.4101e-06,7.99e-06,0.0,0 STARLINK-5814,1 55777U 23028AN  23111.30352863  .00000799  00000-0  84101-5 0  9998,2 55777  69.9987  18.7051 0003623 265.0854  94.9929 15.69942744  8299,6737.198,91.723,361.504,356.622,0.0
55777.0,STARLINK-5814,PAYLOAD,2023-04-21 21:02:52,15.69923931,0.0003518,69.9991,17.0929,267.001,93.0783,1.3102e-06,-5.5e-07,0.0,0 STARLINK-5814,1 55777U 23028AN  23111.87699514 -.00000055  00000-0  13102-5 0  9996,2 55777  69.9991  17.0929 0003518 267.0010  93.0783 15.69923931  8384,6737.252,91.724,361.487,356.746,0.0
55777.0,STARLINK-5814,PAYLOAD,2023-04-22 01:38:06,15.69943018,0.0003259,70.0005,16.5566,264.1963,95.8861,2.8438e-05,3.211e-05,0.0,0 STARLINK-5814,1 55777U 23028AN  23112.06812847  .00003211  00000-0  28438-4 0  9997,2 55777  70.0005  16.5566 0003259 264.1963  95.8861 15.69943018  8410,6737.197,91.723,361.258,356.866,0.0
55777.0,STARLINK-5814,PAYLOAD,2023-04-22 06:13:22,15.69924854,0.0003191,69.999,16.0182,262.2249,97.8585,8.9421e-06,8.63e-06,0.0,0 STARLINK-5814,1 55777U 23028AN  23112.25929157  .00000863  00000-0  89421-5 0  9991,2 55777  69.9990  16.0182 0003191 262.2249  97.8585 15.69924854  8445,6737.249,91.724,361.264,356.964,0.0
55777.0,STARLINK-5814,PAYLOAD,2023-04-22 16:55:39,15.69916521,0.0003678,69.9986,14.7656,265.7568,94.3208,-1.3489e-05,-1.834e-05,0.0,0 STARLINK-5814,1 55777U 23028AN  23112.70532041 -.00001834  00000-0 -13489-4 0  9994,2 55777  69.9986  14.7656 0003678 265.7568  94.3208 15.69916521  8517,6737.273,91.725,361.616,356.66,0.0
55777.0,STARLINK-5814,PAYLOAD,2023-04-22 19:59:10,15.69915895,0.0003583,69.9988,14.4072,259.3532,100.726,-2.2133e-05,-2.872e-05,0.0,0 STARLINK-5814,1 55777U 23028AN  23112.83275627 -.00002872  00000-0 -22133-4 0  9991,2 55777  69.9988  14.4072 0003583 259.3532 100.7260 15.69915895  8538,6737.275,91.725,361.554,356.726,0.0
55777.0,STARLINK-5814,PAYLOAD,2023-04-23 12:48:24,15.69945288,0.0003668,69.9989,12.4354,269.0677,91.0098,-1.5343e-06,-3.98e-06,0.0,0 STARLINK-5814,1 55777U 23028AN  23113.53361545 -.00000398  00000-0 -15343-5 0  9991,2 55777  69.9989  12.4354 0003668 269.0677  91.0098 15.69945288  8644,6737.191,91.723,361.527,356.584,0.0
55777.0,STARLINK-5814,PAYLOAD,2023-04-23 17:23:41,15.699083,0.0003594,69.9999,11.8992,271.256,88.8224,-3.0037e-05,-3.821e-05,0.0,0 STARLINK-5814,1 55777U 23028AN  23113.72478563 -.00003821  00000-0 -30037-4 0  9991,2 55777  69.9999  11.8992 0003594 271.2560  88.8224 15.69908300  8672,6737.296,91.725,361.583,356.74,0.0
55777.0,STARLINK-5814,PAYLOAD,2023-04-23 20:27:11,15.69918526,0.0003413,70.0008,11.5413,269.647,90.4334,-1.8459e-05,-2.431e-05,0.0,0 STARLINK-5814,1 55777U 23028AN  23113.85221691 -.00002431  00000-0 -18459-4 0  9993,2 55777  70.0008  11.5413 0003413 269.6470  90.4334 15.69918526  8696,6737.267,91.725,361.432,356.833,0.0
55777.0,STARLINK-5814,PAYLOAD,2023-04-24 01:02:25,15.6995393,0.0003531,70.0004,11.0033,266.5393,93.5399,5.2785e-05,6.147e-05,0.0,0 STARLINK-5814,1 55777U 23028AN  23114.04334931  .00006147  00000-0  52785-4 0  9993,2 55777  70.0004  11.0033 0003531 266.5393  93.5399 15.69953930  8723,6737.166,91.722,361.41,356.652,0.0
55777.0,STARLINK-5814,PAYLOAD,2023-04-25 01:30:28,15.69916967,0.0004532,70.0004,8.1375,275.7178,84.3501,2.2227e-05,2.46e-05,0.0,0 STARLINK-5814,1 55777U 23028AN  23115.06283376  .00002460  00000-0  22227-4 0  9994,2 55777  70.0004   8.1375 0004532 275.7178  84.3501 15.69916967  8883,6737.272,91.725,362.19,356.083,0.0
55777.0,STARLINK-5814,PAYLOAD,2023-04-25 04:33:59,15.69897358,0.0004022,70.0007,7.7789,258.5795,101.4949,-3.233e-05,-4.095e-05,0.0,0 STARLINK-5814,1 55777U 23028AN  23115.19027528 -.00004095  00000-0 -32330-4 0  9997,2 55777  70.0007   7.7789 0004022 258.5795 101.4949 15.69897358  8900,6737.328,91.726,361.902,356.483,0.0
55777.0,STARLINK-5814,PAYLOAD,2023-04-26 01:58:31,15.69914574,0.0002578,70.0009,5.2711,266.38,93.7101,2.1017e-05,2.314e-05,0.0,0 STARLINK-5814,1 55777U 23028AN  23116.08231453  .00002314  00000-0  21017-4 0  9990,2 55777  70.0009   5.2711 0002578 266.3800  93.7101 15.69914574  9047,6737.278,91.725,360.88,357.407,0.0
55777.0,STARLINK-5814,PAYLOAD,2023-04-26 20:19:32,15.69937614,0.0002716,70.0004,3.121,249.6321,110.4583,0.00010846,0.00012855,0.0,0 STARLINK-5814,1 55777U 23028AN  23116.84690001  .00012855  00000-0  10846-3 0  9990,2 55777  70.0004   3.1210 0002716 249.6321 110.4583 15.69937614  9163,6737.212,91.723,360.907,357.248,0.0
55777.0,STARLINK-5814,PAYLOAD,2023-04-27 03:58:18,15.69912384,0.000252,70.0,2.2265,256.2976,103.794,5.5808e-05,6.499e-05,0.0,0 STARLINK-5814,1 55777U 23028AN  23117.16548729  .00006499  00000-0  55808-4 0  9990,2 55777  70.0000   2.2265 0002520 256.2976 103.7940 15.69912384  9217,6737.285,91.725,360.847,357.452,0.0
55777.0,STARLINK-5814,PAYLOAD,2023-04-28 01:22:50,15.6990768,0.0002123,70.0004,359.7166,279.1543,80.9413,4.0909e-05,4.705e-05,0.0,0 STARLINK-5814,1 55777U 23028AN  23118.05753061  .00004705  00000-0  40909-4 0  9990,2 55777  70.0004 359.7166 0002123 279.1543  80.9413 15.69907680  9353,6737.298,91.725,360.593,357.733,0.0
55777.0,STARLINK-5814,PAYLOAD,2023-04-28 09:01:35,15.69922132,0.0002783,69.9975,358.8242,264.4837,95.6041,-1.3711e-06,-3.77e-06,0.0,0 STARLINK-5814,1 55777U 23028AN  23118.37611086 -.00000377  00000-0 -13711-5 0  9990,2 55777  69.9975 358.8242 0002783 264.4837  95.6041 15.69922132  9402,6737.257,91.724,360.997,357.247,0.0
55777.0,STARLINK-5814,PAYLOAD,2023-04-28 19:43:50,15.69927415,0.0004241,69.9983,357.571,255.9681,104.1044,-4.5341e-06,-7.59e-06,0.0,0 STARLINK-5814,1 55777U 23028AN  23118.82211508 -.00000759  00000-0 -45341-5 0  9993,2 55777  69.9983 357.5710 0004241 255.9681 104.1044 15.69927415  9475,6737.242,91.724,361.964,356.249,0.0
55777.0,STARLINK-5814,PAYLOAD,2023-04-29 01:50:51,15.69917749,0.0002997,69.9995,356.8527,262.1551,97.9305,-7.5178e-06,-1.116e-05,0.0,0 STARLINK-5814,1 55777U 23028AN  23119.07698988 -.00001116  00000-0 -75178-5 0  9991,2 55777  69.9995 356.8527 0002997 262.1551  97.9305 15.69917749  9511,6737.269,91.725,361.153,357.115,0.0
55777.0,STARLINK-5814,PAYLOAD,2023-04-29 03:22:36,15.6992379,0.0003169,69.9992,356.6718,269.9329,90.1504,1.1556e-06,-7.4e-07,0.0,0 STARLINK-5814,1 55777U 23028AN  23119.14070140 -.00000074  00000-0  11556-5 0  9994,2 55777  69.9992 356.6718 0003169 269.9329  90.1504 15.69923790  9528,6737.252,91.724,361.252,356.982,0.0
55777.0,STARLINK-5814,PAYLOAD,2023-04-30 00:47:08,15.69926117,0.0002974,69.998,354.1651,268.0557,92.0298,1.9593e-05,2.144e-05,0.0,0 STARLINK-5814,1 55777U 23028AN  23120.03273184  .00002144  00000-0  19593-4 0  9994,2 55777  69.9980 354.1651 0002974 268.0557  92.0298 15.69926117  9662,6737.245,91.724,361.114,357.107,0.0
55777.0,STARLINK-5814,PAYLOAD,2023-04-30 17:36:25,15.69918344,0.0003244,69.9999,352.1984,237.9215,122.1666,-1.6908e-06,-4.16e-06,0.0,0 STARLINK-5814,1 55777U 23028AN  23120.73362434 -.00000416  00000-0 -16908-5 0  9998,2 55777  69.9999 352.1984 0003244 237.9215 122.1666 15.69918344  9775,6737.268,91.725,361.318,356.947,0.0
55777.0,STARLINK-5814,PAYLOAD,2023-05-01 02:46:55,15.69921842,0.0002881,70.0008,351.1222,254.3974,105.6904,-5.2683e-06,-8.46e-06,0.0,0 STARLINK-5814,1 55777U 23028AN  23121.11592592 -.00000846  00000-0 -52683-5 0  9998,2 55777  70.0008 351.1222 0002881 254.3974 105.6904 15.69921842  9839,6737.258,91.724,361.064,357.182,0.0
55777.0,STARLINK-5814,PAYLOAD,2023-05-01 18:04:26,15.69931467,0.0003618,69.9982,349.3288,260.2431,99.8356,1.1003e-05,1.111e-05,0.0,0 STARLINK-5814,1 55777U 23028AN  23121.75308086  .00001111  00000-0  11003-4 0  9995,2 55777  69.9982 349.3288 0003618 260.2431  99.8356 15.69931467  9931,6737.23,91.724,361.533,356.658,0.0
55777.0,STARLINK-5814,PAYLOAD,2023-05-02 01:43:11,15.69932856,0.0003525,69.9976,348.4317,263.2563,96.8231,1.1141e-05,1.127e-05,0.0,0 STARLINK-5814,1 55777U 23028AN  23122.07166274  .00001127  00000-0  11141-4 0  9992,2 55777  69.9976 348.4317 0003525 263.2563  96.8231 15.69932856  9980,6737.226,91.724,361.466,356.716,0.0
55777.0,STARLINK-5814,PAYLOAD,2023-05-02 18:32:29,15.69921257,0.0002972,69.9979,346.46,251.9143,108.173,-4.2841e-06,-7.28e-06,0.0,0 STARLINK-5814,1 55777U 23028AN  23122.77255935 -.00000728  00000-0 -42841-5 0  9992,2 55777  69.9979 346.4600 0002972 251.9143 108.1730 15.69921257 10097,6737.259,91.724,361.127,357.122,0.0
